[{"OBJECT_NAME":"AEROCUBE 6B","OBJECT_ID":"2014-033AN","EPOCH":"2026-03-06T10:05:57.925248","MEAN_MOTION":14.98173727,"ECCENTRICITY":0.00375546,"INCLINATION":97.7119,"RA_OF_ASC_NODE":233.1942,"ARG_OF_PERICENTER":353.5755,"MEAN_ANOMALY":6.4981,"EPHEMERIS_TYPE":0,"CLASSIFICATION_TYPE":"U","NORAD_CAT_ID":40046,"ELEMENT_SET_NO":999,"REV_AT_EPOCH":63136,"BSTAR":0.0007027748,"MEAN_MOTION_DOT":8.401e-5,"MEAN_MOTION_DDOT":0},{"OBJECT_NAME":"CANX-4","OBJECT_ID":"2014-034C","EPOCH":"2026-03-07T03:26:57.045984","MEAN_MOTION":14.81053161,"ECCENTRICITY":0.001251,"INCLINATION":98.328,"RA_OF_ASC_NODE":297.6336,"ARG_OF_PERICENTER":344.9124,"MEAN_ANOMALY":15.1713,"EPHEMERIS_TYPE":0,"CLASSIFICATION_TYPE":"U","NORAD_CAT_ID":40055,"ELEMENT_SET_NO":999,"REV_AT_EPOCH":62942,"BSTAR":0.00018567,"MEAN_MOTION_DOT":1.384e-5,"MEAN_MOTION_DDOT":0},{"OBJECT_NAME":"CANX-5","OBJECT_ID":"2014-034D","EPOCH":"2026-03-07T01:49:05.500704","MEAN_MOTION":14.81069644,"ECCENTRICITY":0.0012505,"INCLINATION":98.3282,"RA_OF_ASC_NODE":297.6008,"ARG_OF_PERICENTER":345.2791,"MEAN_ANOMALY":14.8054,"EPHEMERIS_TYPE":0,"CLASSIFICATION_TYPE":"U","NORAD_CAT_ID":40056,"ELEMENT_SET_NO":999,"REV_AT_EPOCH":62022,"BSTAR":0.00018544,"MEAN_MOTION_DOT":1.383e-5,"MEAN_MOTION_DDOT":0},{"OBJECT_NAME":"UKUBE-1","OBJECT_ID":"2014-037F","EPOCH":"2026-03-06T23:16:30.463392","MEAN_MOTION":15.11717714,"ECCENTRICITY":0.0003041,"INCLINATION":98.4234,"RA_OF_ASC_NODE":58.6553,"ARG_OF_PERICENTER":112.3958,"MEAN_ANOMALY":247.7591,"EPHEMERIS_TYPE":0,"CLASSIFICATION_TYPE":"U","NORAD_CAT_ID":40074,"ELEMENT_SET_NO":999,"REV_AT_EPOCH":63310,"BSTAR":0.00070149,"MEAN_MOTION_DOT":0.00011887,"MEAN_MOTION_DDOT":0},{"OBJECT_NAME":"BRITE-PL2 (HEWELIUSZ)","OBJECT_ID":"2014-049B","EPOCH":"2026-03-07T04:41:13.926912","MEAN_MOTION":14.94166942,"ECCENTRICITY":0.0015613,"INCLINATION":97.8983,"RA_OF_ASC_NODE":177.511,"ARG_OF_PERICENTER":88.9219,"MEAN_ANOMALY":271.3789,"EPHEMERIS_TYPE":0,"CLASSIFICATION_TYPE":"U","NORAD_CAT_ID":40119,"ELEMENT_SET_NO":999,"REV_AT_EPOCH":62621,"BSTAR":0.00031246,"MEAN_MOTION_DOT":3.294e-5,"MEAN_MOTION_DDOT":0},{"OBJECT_NAME":"AEROCUBE 5C","OBJECT_ID":"2015-058B","EPOCH":"2026-03-06T18:15:01.457856","MEAN_MOTION":14.90825487,"ECCENTRICITY":0.013085,"INCLINATION":64.7671,"RA_OF_ASC_NODE":221.0825,"ARG_OF_PERICENTER":103.6534,"MEAN_ANOMALY":257.9187,"EPHEMERIS_TYPE":0,"CLASSIFICATION_TYPE":"U","NORAD_CAT_ID":40965,"ELEMENT_SET_NO":999,"REV_AT_EPOCH":35038,"BSTAR":0.00049869,"MEAN_MOTION_DOT":5.628e-5,"MEAN_MOTION_DDOT":0},{"OBJECT_NAME":"AEROCUBE 7","OBJECT_ID":"2015-058C","EPOCH":"2026-03-06T18:34:17.495040","MEAN_MOTION":14.9485854,"ECCENTRICITY":0.0120774,"INCLINATION":64.7628,"RA_OF_ASC_NODE":205.3858,"ARG_OF_PERICENTER":102.7225,"MEAN_ANOMALY":258.7421,"EPHEMERIS_TYPE":0,"CLASSIFICATION_TYPE":"U","NORAD_CAT_ID":40966,"ELEMENT_SET_NO":999,"REV_AT_EPOCH":35064,"BSTAR":0.0006051,"MEAN_MOTION_DOT":7.48e-5,"MEAN_MOTION_DDOT":0},{"OBJECT_NAME":"FOX-1A (AO-85)","OBJECT_ID":"2015-058D","EPOCH":"2026-03-06T21:47:56.935104","MEAN_MOTION":14.90325083,"ECCENTRICITY":0.0129055,"INCLINATION":64.7742,"RA_OF_ASC_NODE":236.6764,"ARG_OF_PERICENTER":97.0393,"MEAN_ANOMALY":264.5416,"EPHEMERIS_TYPE":0,"CLASSIFICATION_TYPE":"U","NORAD_CAT_ID":40967,"ELEMENT_SET_NO":999,"REV_AT_EPOCH":9832,"BSTAR":0.00042282,"MEAN_MOTION_DOT":4.657e-5,"MEAN_MOTION_DDOT":0},{"OBJECT_NAME":"SINOD-D 1","OBJECT_ID":"2015-058E","EPOCH":"2026-03-06T19:55:41.262816","MEAN_MOTION":14.95012896,"ECCENTRICITY":0.0117374,"INCLINATION":64.7754,"RA_OF_ASC_NODE":219.2358,"ARG_OF_PERICENTER":94.3709,"MEAN_ANOMALY":267.0826,"EPHEMERIS_TYPE":0,"CLASSIFICATION_TYPE":"U","NORAD_CAT_ID":40968,"ELEMENT_SET_NO":999,"REV_AT_EPOCH":10135,"BSTAR":0.00061338,"MEAN_MOTION_DOT":7.555e-5,"MEAN_MOTION_DDOT":0},{"OBJECT_NAME":"SNAP-3 ALICE","OBJECT_ID":"2015-058G","EPOCH":"2026-03-07T04:15:53.678304","MEAN_MOTION":15.43279905,"ECCENTRICITY":0.0037471,"INCLINATION":64.7557,"RA_OF_ASC_NODE":91.7988,"ARG_OF_PERICENTER":69.4284,"MEAN_ANOMALY":291.0867,"EPHEMERIS_TYPE":0,"CLASSIFICATION_TYPE":"U","NORAD_CAT_ID":40970,"ELEMENT_SET_NO":999,"REV_AT_EPOCH":10106,"BSTAR":0.0014266,"MEAN_MOTION_DOT":0.00065825,"MEAN_MOTION_DDOT":0},{"OBJECT_NAME":"LMRST-SAT","OBJECT_ID":"2015-058H","EPOCH":"2026-03-06T20:06:46.414080","MEAN_MOTION":14.89958892,"ECCENTRICITY":0.013115,"INCLINATION":64.775,"RA_OF_ASC_NODE":233.043,"ARG_OF_PERICENTER":99.007,"MEAN_ANOMALY":262.5911,"EPHEMERIS_TYPE":0,"CLASSIFICATION_TYPE":"U","NORAD_CAT_ID":40971,"ELEMENT_SET_NO":999,"REV_AT_EPOCH":9830,"BSTAR":0.00050009,"MEAN_MOTION_DOT":5.517e-5,"MEAN_MOTION_DDOT":0},{"OBJECT_NAME":"SNAP-3 EDDIE","OBJECT_ID":"2015-058J","EPOCH":"2026-03-07T04:13:35.003712","MEAN_MOTION":15.44266932,"ECCENTRICITY":0.003865,"INCLINATION":64.7476,"RA_OF_ASC_NODE":83.2097,"ARG_OF_PERICENTER":74.57,"MEAN_ANOMALY":285.9702,"EPHEMERIS_TYPE":0,"CLASSIFICATION_TYPE":"U","NORAD_CAT_ID":40972,"ELEMENT_SET_NO":999,"REV_AT_EPOCH":10319,"BSTAR":0.0014354,"MEAN_MOTION_DOT":0.00068651,"MEAN_MOTION_DDOT":0},{"OBJECT_NAME":"PROPCUBE 3","OBJECT_ID":"2015-058K","EPOCH":"2026-03-06T20:27:54.920736","MEAN_MOTION":14.9349253,"ECCENTRICITY":0.012372,"INCLINATION":64.7689,"RA_OF_ASC_NODE":212.0806,"ARG_OF_PERICENTER":100.7833,"MEAN_ANOMALY":260.7235,"EPHEMERIS_TYPE":0,"CLASSIFICATION_TYPE":"U","NORAD_CAT_ID":40973,"ELEMENT_SET_NO":999,"REV_AT_EPOCH":9951,"BSTAR":0.00056759,"MEAN_MOTION_DOT":6.795e-5,"MEAN_MOTION_DDOT":0},{"OBJECT_NAME":"BISONSAT","OBJECT_ID":"2015-058L","EPOCH":"2026-03-06T15:38:49.124544","MEAN_MOTION":15.13702722,"ECCENTRICITY":0.00795186,"INCLINATION":64.7599,"RA_OF_ASC_NODE":144.5433,"ARG_OF_PERICENTER":92.0231,"MEAN_ANOMALY":269.0001,"EPHEMERIS_TYPE":0,"CLASSIFICATION_TYPE":"U","NORAD_CAT_ID":40974,"ELEMENT_SET_NO":999,"REV_AT_EPOCH":10008,"BSTAR":0.00074979064,"MEAN_MOTION_DOT":0.0001449,"MEAN_MOTION_DDOT":0},{"OBJECT_NAME":"SNAP-3 JIMI","OBJECT_ID":"2015-058M","EPOCH":"2026-03-06T07:12:48.310560","MEAN_MOTION":15.01074067,"ECCENTRICITY":0.01056891,"INCLINATION":64.7663,"RA_OF_ASC_NODE":185.0026,"ARG_OF_PERICENTER":97.8734,"MEAN_ANOMALY":263.4395,"EPHEMERIS_TYPE":0,"CLASSIFICATION_TYPE":"U","NORAD_CAT_ID":40975,"ELEMENT_SET_NO":999,"REV_AT_EPOCH":9877,"BSTAR":0.00060250348,"MEAN_MOTION_DOT":8.539e-5,"MEAN_MOTION_DDOT":0},{"OBJECT_NAME":"PROPCUBE 1 (FLORA)","OBJECT_ID":"2015-058N","EPOCH":"2026-03-06T21:37:35.527296","MEAN_MOTION":14.88609441,"ECCENTRICITY":0.0130272,"INCLINATION":64.7732,"RA_OF_ASC_NODE":252.1002,"ARG_OF_PERICENTER":101.2694,"MEAN_ANOMALY":260.3089,"EPHEMERIS_TYPE":0,"CLASSIFICATION_TYPE":"U","NORAD_CAT_ID":40976,"ELEMENT_SET_NO":999,"REV_AT_EPOCH":10103,"BSTAR":0.00041093,"MEAN_MOTION_DOT":4.328e-5,"MEAN_MOTION_DDOT":0},{"OBJECT_NAME":"SINOD-D 3","OBJECT_ID":"2015-058P","EPOCH":"2026-03-06T20:46:05.898720","MEAN_MOTION":14.93169746,"ECCENTRICITY":0.0118687,"INCLINATION":64.7719,"RA_OF_ASC_NODE":235.1341,"ARG_OF_PERICENTER":99.3038,"MEAN_ANOMALY":262.1519,"EPHEMERIS_TYPE":0,"CLASSIFICATION_TYPE":"U","NORAD_CAT_ID":40977,"ELEMENT_SET_NO":999,"REV_AT_EPOCH":9947,"BSTAR":0.00053202,"MEAN_MOTION_DOT":6.225e-5,"MEAN_MOTION_DDOT":0}]
