AEROCUBE 6B             
1 40046U 14033AN  26065.42080932  .00008401  00000+0  70277-3 0  9990
2 40046  97.7119 233.1942 0037554 353.5755   6.4981 14.98173727631367
CANX-4                  
1 40055U 14034C   26066.14371581  .00001384  00000+0  18567-3 0  9991
2 40055  98.3280 297.6336 0012510 344.9124  15.1713 14.81053161629429
CANX-5                  
1 40056U 14034D   26066.07575811  .00001383  00000+0  18544-3 0  9990
2 40056  98.3282 297.6008 0012505 345.2791  14.8054 14.81069644620222
UKUBE-1                 
1 40074U 14037F   26065.96979703  .00011887  00000+0  70149-3 0  9997
2 40074  98.4234  58.6553 0003041 112.3958 247.7591 15.11717714633109
BRITE-PL2 (HEWELIUSZ)   
1 40119U 14049B   26066.19530008  .00003294  00000+0  31246-3 0  9995
2 40119  97.8983 177.5110 0015613  88.9219 271.3789 14.94166942626216
AEROCUBE 5C             
1 40965U 15058B   26065.76043354  .00005628  00000+0  49869-3 0  9993
2 40965  64.7671 221.0825 0130850 103.6534 257.9187 14.90825487350382
AEROCUBE 7              
1 40966U 15058C   26065.77381360  .00007480  00000+0  60510-3 0  9991
2 40966  64.7628 205.3858 0120774 102.7225 258.7421 14.94858540350646
FOX-1A (AO-85)          
1 40967U 15058D   26065.90829786  .00004657  00000+0  42282-3 0  9995
2 40967  64.7742 236.6764 0129055  97.0393 264.5416 14.90325083 98320
SINOD-D 1               
1 40968U 15058E   26065.83033869  .00007555  00000+0  61338-3 0  9990
2 40968  64.7754 219.2358 0117374  94.3709 267.0826 14.95012896101353
SNAP-3 ALICE            
1 40970U 15058G   26066.17770461  .00065825  00000+0  14266-2 0  9998
2 40970  64.7557  91.7988 0037471  69.4284 291.0867 15.43279905101069
LMRST-SAT               
1 40971U 15058H   26065.83803720  .00005517  00000+0  50009-3 0  9994
2 40971  64.7750 233.0430 0131150  99.0070 262.5911 14.89958892 98302
SNAP-3 EDDIE            
1 40972U 15058J   26066.17609958  .00068651  00000+0  14354-2 0  9990
2 40972  64.7476  83.2097 0038650  74.5700 285.9702 15.44266932103191
PROPCUBE 3              
1 40973U 15058K   26065.85271899  .00006795  00000+0  56759-3 0  9991
2 40973  64.7689 212.0806 0123720 100.7833 260.7235 14.93492530 99510
BISONSAT                
1 40974U 15058L   26065.65195746  .00014490  00000+0  74979-3 0  9991
2 40974  64.7599 144.5433 0079518  92.0231 269.0001 15.13702722100084
SNAP-3 JIMI             
1 40975U 15058M   26065.30055915  .00008539  00000+0  60250-3 0  9991
2 40975  64.7663 185.0026 0105689  97.8734 263.4395 15.01074067 98772
PROPCUBE 1 (FLORA)      
1 40976U 15058N   26065.90110564  .00004328  00000+0  41093-3 0  9996
2 40976  64.7732 252.1002 0130272 101.2694 260.3089 14.88609441101035
SINOD-D 3               
1 40977U 15058P   26065.86534605  .00006225  00000+0  53202-3 0  9991
2 40977  64.7719 235.1341 0118687  99.3038 262.1519 14.93169746 99470
